CCSDS_OMM_VERS = 2.0
CREATION_DATE  = 
ORIGINATOR     = 

OBJECT_NAME    = DUPLEX
OBJECT_ID      = 1998-067XS
CENTER_NAME    = EARTH
REF_FRAME      = TEME
TIME_SYSTEM    = UTC
MEAN_ELEMENT_THEORY = SGP/SGP4

EPOCH          = 2026-01-22T04:09:35.605728
MEAN_MOTION    = 15.52963510
ECCENTRICITY   = .00020354
INCLINATION    = 51.6314
RA_OF_ASC_NODE = 301.5447
ARG_OF_PERICENTER = 43.0126
MEAN_ANOMALY   = 317.1023

EPHEMERIS_TYPE = 0
CLASSIFICATION_TYPE = U
NORAD_CAT_ID   = 66906
ELEMENT_SET_NO = 999
REV_AT_EPOCH   = 789
BSTAR          = .56295587E-3
MEAN_MOTION_DOT = .35409E-3
MEAN_MOTION_DDOT = 0

CCSDS_OMM_VERS = 2.0
CREATION_DATE  = 
ORIGINATOR     = 

OBJECT_NAME    = 1998-067XT
OBJECT_ID      = 1998-067XT
CENTER_NAME    = EARTH
REF_FRAME      = TEME
TIME_SYSTEM    = UTC
MEAN_ELEMENT_THEORY = SGP/SGP4

EPOCH          = 2026-01-22T00:54:48.079008
MEAN_MOTION    = 15.57787396
ECCENTRICITY   = .0003363
INCLINATION    = 51.6299
RA_OF_ASC_NODE = 301.3909
ARG_OF_PERICENTER = 102.1607
MEAN_ANOMALY   = 257.9762

EPHEMERIS_TYPE = 0
CLASSIFICATION_TYPE = U
NORAD_CAT_ID   = 66907
ELEMENT_SET_NO = 999
REV_AT_EPOCH   = 788
BSTAR          = .14542848E-2
MEAN_MOTION_DOT = .111291E-2
MEAN_MOTION_DDOT = 0

CCSDS_OMM_VERS = 2.0
CREATION_DATE  = 
ORIGINATOR     = 

OBJECT_NAME    = 1998-067XU
OBJECT_ID      = 1998-067XU
CENTER_NAME    = EARTH
REF_FRAME      = TEME
TIME_SYSTEM    = UTC
MEAN_ELEMENT_THEORY = SGP/SGP4

EPOCH          = 2026-01-22T00:53:55.553856
MEAN_MOTION    = 15.57716409
ECCENTRICITY   = .00032851
INCLINATION    = 51.6294
RA_OF_ASC_NODE = 301.3855
ARG_OF_PERICENTER = 96.7713
MEAN_ANOMALY   = 263.3653

EPHEMERIS_TYPE = 0
CLASSIFICATION_TYPE = U
NORAD_CAT_ID   = 66908
ELEMENT_SET_NO = 999
REV_AT_EPOCH   = 788
BSTAR          = .14566423E-2
MEAN_MOTION_DOT = .111173E-2
MEAN_MOTION_DDOT = 0

CCSDS_OMM_VERS = 2.0
CREATION_DATE  = 
ORIGINATOR     = 

OBJECT_NAME    = SILVERSAT
OBJECT_ID      = 1998-067XV
CENTER_NAME    = EARTH
REF_FRAME      = TEME
TIME_SYSTEM    = UTC
MEAN_ELEMENT_THEORY = SGP/SGP4

EPOCH          = 2026-01-22T00:36:11.612160
MEAN_MOTION    = 15.58654461
ECCENTRICITY   = .00035982
INCLINATION    = 51.6297
RA_OF_ASC_NODE = 301.3037
ARG_OF_PERICENTER = 109.9526
MEAN_ANOMALY   = 250.1855

EPHEMERIS_TYPE = 0
CLASSIFICATION_TYPE = U
NORAD_CAT_ID   = 66909
ELEMENT_SET_NO = 999
REV_AT_EPOCH   = 788
BSTAR          = .15730557E-2
MEAN_MOTION_DOT = .124641E-2
MEAN_MOTION_DDOT = 0

CCSDS_OMM_VERS = 2.0
CREATION_DATE  = 
ORIGINATOR     = 

OBJECT_NAME    = 1998-067XW
OBJECT_ID      = 1998-067XW
CENTER_NAME    = EARTH
REF_FRAME      = TEME
TIME_SYSTEM    = UTC
MEAN_ELEMENT_THEORY = SGP/SGP4

EPOCH          = 2026-01-22T00:41:36.733632
MEAN_MOTION    = 15.58009470
ECCENTRICITY   = .00021028
INCLINATION    = 51.6293
RA_OF_ASC_NODE = 301.3257
ARG_OF_PERICENTER = 86.8684
MEAN_ANOMALY   = 273.2549

EPHEMERIS_TYPE = 0
CLASSIFICATION_TYPE = U
NORAD_CAT_ID   = 66910
ELEMENT_SET_NO = 999
REV_AT_EPOCH   = 788
BSTAR          = .13486112E-2
MEAN_MOTION_DOT = .103927E-2
MEAN_MOTION_DDOT = 0

CCSDS_OMM_VERS = 2.0
CREATION_DATE  = 
ORIGINATOR     = 

OBJECT_NAME    = 1998-067XX
OBJECT_ID      = 1998-067XX
CENTER_NAME    = EARTH
REF_FRAME      = TEME
TIME_SYSTEM    = UTC
MEAN_ELEMENT_THEORY = SGP/SGP4

EPOCH          = 2026-01-22T00:10:45.908256
MEAN_MOTION    = 15.59622931
ECCENTRICITY   = .00023851
INCLINATION    = 51.6279
RA_OF_ASC_NODE = 301.1834
ARG_OF_PERICENTER = 115.6769
MEAN_ANOMALY   = 244.4470

EPHEMERIS_TYPE = 0
CLASSIFICATION_TYPE = U
NORAD_CAT_ID   = 66911
ELEMENT_SET_NO = 999
REV_AT_EPOCH   = 787
BSTAR          = .16952069E-2
MEAN_MOTION_DOT = .139644E-2
MEAN_MOTION_DDOT = 0

CCSDS_OMM_VERS = 2.0
CREATION_DATE  = 
ORIGINATOR     = 

OBJECT_NAME    = 1998-067XY
OBJECT_ID      = 1998-067XY
CENTER_NAME    = EARTH
REF_FRAME      = TEME
TIME_SYSTEM    = UTC
MEAN_ELEMENT_THEORY = SGP/SGP4

EPOCH          = 2026-01-21T23:59:47.790816
MEAN_MOTION    = 15.55982915
ECCENTRICITY   = .00030664
INCLINATION    = 51.6304
RA_OF_ASC_NODE = 301.8855
ARG_OF_PERICENTER = 79.5565
MEAN_ANOMALY   = 280.5771

EPHEMERIS_TYPE = 0
CLASSIFICATION_TYPE = U
NORAD_CAT_ID   = 66912
ELEMENT_SET_NO = 999
REV_AT_EPOCH   = 786
BSTAR          = .11445408E-2
MEAN_MOTION_DOT = .81461E-3
MEAN_MOTION_DDOT = 0

