DUPLEX                  
1 66906U 98067XS  26022.17332877  .00035409  00000+0  56296-3 0  9998
2 66906  51.6314 301.5447 0002035  43.0126 317.1023 15.52963510  7897
1998-067XT              
1 66907U 98067XT  26022.03805647  .00111291  00000+0  14543-2 0  9996
2 66907  51.6299 301.3909 0003363 102.1607 257.9762 15.57787396  7888
1998-067XU              
1 66908U 98067XU  26022.03744854  .00111173  00000+0  14566-2 0  9993
2 66908  51.6294 301.3855 0003285  96.7713 263.3653 15.57716409  7880
SILVERSAT               
1 66909U 98067XV  26022.02513440  .00124641  00000+0  15731-2 0  9997
2 66909  51.6297 301.3037 0003598 109.9526 250.1855 15.58654461  7880
1998-067XW              
1 66910U 98067XW  26022.02889738  .00103927  00000+0  13486-2 0  9994
2 66910  51.6293 301.3257 0002102  86.8684 273.2549 15.58009470  7880
1998-067XX              
1 66911U 98067XX  26022.00747579  .00139644  00000+0  16952-2 0  9995
2 66911  51.6279 301.1834 0002385 115.6769 244.4470 15.59622931  7878
1998-067XY              
1 66912U 98067XY  26021.99985869  .00081461  00000+0  11445-2 0  9994
2 66912  51.6304 301.8855 0003066  79.5565 280.5771 15.55982915  7868
